COSMOS 2426 (717)       
1 29671U 06062B   19109.69609074 -.00000015  00000-0  10000-3 0  9991
2 29671  65.1498 282.2716 0017542 158.4499 192.9583  2.13103031 95844
COSMOS 2433 (720)       
1 32275U 07052A   19109.65218104 -.00000067  00000-0  10000-3 0  9998
2 32275  65.8297  43.0942 0004190 286.0178   8.1324  2.13104433 89350
COSMOS 2432 (719)       
1 32276U 07052B   19109.71818347 -.00000067  00000-0  10000-3 0  9991
2 32276  65.8408  43.1744 0013009 329.9434 326.0597  2.13103908 89357
COSMOS 2434 (721)       
1 32393U 07065A   19110.41937109 -.00000016  00000-0  00000+0 0  9991
2 32393  64.7484 280.9713 0005471  93.0432 317.1460  2.13102958 88080
COSMOS 2436 (723)       
1 32395U 07065C   19109.87409735 -.00000017  00000-0  10000-3 0  9996
2 32395  64.7611 281.0438 0016730   6.9751  36.8947  2.13104385 88000
COSMOS 2456 (730)       
1 36111U 09070A   19110.52030462  .00000052  00000-0  00000+0 0  9998
2 36111  64.1957 160.5977 0005481 307.5254 353.0548  2.13102919 72741
COSMOS 2457 (733)       
1 36112U 09070B   19110.45350726  .00000053  00000-0  00000+0 0  9990
2 36112  64.1792 160.5041 0005187 183.3197 191.3767  2.13101595 72756
COSMOS 2459 (731)       
1 36400U 10007A   19109.73841797 -.00000068  00000-0  10000-3 0  9996
2 36400  65.7343  42.1166 0028232 349.0204 227.7143  2.13102257 71087
COSMOS 2461 (735)       
1 36401U 10007B   19110.15492689 -.00000067  00000-0  10000-3 0  9996
2 36401  65.7289  42.0735 0006857  46.2068  40.5884  2.13102234 71090
COSMOS 2460 (732)       
1 36402U 10007C   19110.22854178 -.00000067  00000-0  10000-3 0  9990
2 36402  65.7190  42.0367 0002257 328.7781 214.5182  2.13101565 71093
COSMOS 2464 (736)       
1 37139U 10041C   19109.75489961 -.00000017  00000-0  00000+0 0  9996
2 37139  64.3518 280.6462 0026163  16.1052 111.0336  2.13100661 67157
COSMOS 2474 (742)       
1 37829U 11055A   19109.71835877  .00000060  00000-0  00000-0 0  9993
2 37829  64.5181 161.4732 0009931 249.8016  12.2605  2.13101902 58729
COSMOS 2476 (744)       
1 37867U 11064A   19109.47053238  .00000062  00000-0  00000-0 0  9993
2 37867  64.4972 161.5364 0020016 242.3314 235.7354  2.13102014 58072
COSMOS 2477 (745)       
1 37868U 11064B   19109.65470336  .00000060  00000-0  00000+0 0  9993
2 37868  64.5067 161.5792 0017579 243.7041 194.3737  2.13101793 58030
COSMOS 2475 (743)       
1 37869U 11064C   19109.85049507  .00000059  00000-0  00000+0 0  9996
2 37869  64.5131 161.5757 0022115 265.8165 279.4776  2.13101954 58046
COSMOS 2485 (747)       
1 39155U 13019A   19109.64225795  .00000061  00000-0  00000+0 0  9993
2 39155  64.6668 161.7051 0020311 237.6081  56.9502  2.13101935 46547
COSMOS 2492 (754)       
1 39620U 14012A   19109.57871824 -.00000069  00000-0  10000-3 0  9990
2 39620  65.6076  41.9006 0016248 326.9421 313.9313  2.13103388 39497
COSMOS 2500 (755)       
1 40001U 14032A   19109.62220015 -.00000069  00000-0  00000+0 0  9998
2 40001  65.5487  41.8464 0005446 229.0445 306.7384  2.13102822 37714
COSMOS 2501 (702K)      
1 40315U 14075A   19109.74997333 -.00000018  00000-0  00000+0 0  9994
2 40315  64.0722 281.7478 0014706 203.5533 228.7628  2.13098623 34121
COSMOS 2514 (751)       
1 41330U 16008A   19110.33724087 -.00000068  00000-0  00000+0 0  9996
2 41330  65.3513  41.7987 0009160 229.7461 316.1544  2.13103195 24891
COSMOS 2516 (753)       
1 41554U 16032A   19110.51871858 -.00000017  00000-0  00000+0 0  9994
2 41554  64.2950 281.6722 0010424 211.9690   3.7897  2.13101723 22507
COSMOS 2522 (752)       
1 42939U 17055A   19110.22252898 -.00000017  00000-0  00000+0 0  9993
2 42939  64.5263 281.7386 0005053 244.9859 330.0348  2.13101890 12250
COSMOS 2527 (756)       
1 43508U 18053A   19109.77667875  .00000060  00000-0  00000+0 0  9995
2 43508  64.8319 161.4575 0008219 239.8713  24.1704  2.13102683  6533
COSMOS 2529 (757)       
1 43687U 18086A   19110.52703992 -.00000016  00000-0  00000+0 0  9997
2 43687  64.7378 281.7333 0007968 279.1560 125.1870  2.13101991  3578
